[{"OBJECT_NAME":"OBJECT AS","OBJECT_ID":"2023-085AS","EPOCH":"2026-03-09T22:43:55.521696","MEAN_MOTION":15.33336233,"ECCENTRICITY":0.00083243,"INCLINATION":97.4812,"RA_OF_ASC_NODE":180.8852,"ARG_OF_PERICENTER":80.6036,"MEAN_ANOMALY":279.6147,"EPHEMERIS_TYPE":0,"CLASSIFICATION_TYPE":"U","NORAD_CAT_ID":57044,"ELEMENT_SET_NO":999,"REV_AT_EPOCH":15162,"BSTAR":0.00067677795,"MEAN_MOTION_DOT":0.00021782,"MEAN_MOTION_DDOT":0},{"OBJECT_NAME":"STARLINK-35904","OBJECT_ID":"2025-271L","EPOCH":"2026-03-09T11:33:48.525696","MEAN_MOTION":15.30193865,"ECCENTRICITY":9.943e-5,"INCLINATION":53.1575,"RA_OF_ASC_NODE":140.9863,"ARG_OF_PERICENTER":76.5963,"MEAN_ANOMALY":283.5148,"EPHEMERIS_TYPE":0,"CLASSIFICATION_TYPE":"U","NORAD_CAT_ID":66627,"ELEMENT_SET_NO":999,"REV_AT_EPOCH":1749,"BSTAR":0.001243665,"MEAN_MOTION_DOT":0.00036649,"MEAN_MOTION_DDOT":0}]
